{
  "norad_id": 58382,
  "name": "STARLINK-30927",
  "history": [
    {
      "epoch": "2026-03-28T19:13:24.408480",
      "apogee_km": 475.79806468652805,
      "perigee_km": 474.60544667626345,
      "latitude_deg": -32.60080124960699,
      "longitude_deg": 95.0937871998176,
      "semi_major_axis_km": 6853.338755681395,
      "eccentricity": 8.701e-05,
      "inclination_deg": 53.1602,
      "raan_deg": 272.5688,
      "arg_perigee_deg": 78.5045,
      "mean_anomaly_deg": 281.6053,
      "mean_motion_rev_day": 15.30204459
    }
  ]
}